NORAD_CAT_ID,OBJECT_NAME,OBJECT_TYPE,EPOCH,MEAN_MOTION,ECCENTRICITY,INCLINATION,RA_OF_ASC_NODE,ARG_OF_PERICENTER,MEAN_ANOMALY,BSTAR,MEAN_MOTION_DOT,MEAN_MOTION_DDOT,TLE_LINE0,TLE_LINE1,TLE_LINE2,SEMIMAJOR_AXIS,PERIOD,APOGEE,PERIGEE,DECAYED
53819.0,STARLINK-4738,PAYLOAD,2022-10-25 22:00:01,15.7319462,0.0002077,53.2141,76.3236,24.4158,86.0859,0.00042115,0.0005889,0.0,0 STARLINK-4738,1 53819U 22114B   22298.91668981  .00058890  00000-0  42115-3 0  9993,2 53819  53.2141  76.3236 0002077  24.4158  86.0859 15.73194620  1309,6727.911,91.533,351.173,348.37800000000016,0.0
53819.0,STARLINK-4738,PAYLOAD,2022-10-26 06:00:00,15.7323786,0.0001861,53.2143,74.6721,28.3294,171.0577,3.5535e-05,4.377e-05,0.0,0 STARLINK-4738,1 53819U 22114B   22299.25001157  .00004377  00000-0  35535-4 0  9997,2 53819  53.2143  74.6721 0001861  28.3294 171.0577 15.73237860  6430,6727.7869999999975,91.531,350.904,348.4,0.0
53819.0,STARLINK-4738,PAYLOAD,2022-10-26 14:00:01,15.73223965,0.0002112,53.2147,73.024,30.1898,258.1743,0.00021039,0.0002904,0.0,0 STARLINK-4738,1 53819U 22114B   22299.58334491  .00029040  00000-0  21039-3 0  9990,2 53819  53.2147  73.0240 0002112  30.1898 258.1743 15.73223965  1308,6727.8269999999975,91.532,351.11300000000006,348.271,0.0
53819.0,STARLINK-4738,PAYLOAD,2022-10-26 22:00:00,15.73274251,0.0002223,53.215,71.3749,24.2776,353.0501,-0.00060428,-0.00084857,0.0,0 STARLINK-4738,1 53819U 22114B   22299.91667824 -.00084857  00000-0 -60428-3 0  9990,2 53819  53.2150  71.3749 0002223  24.2776 353.0501 15.73274251  1300,6727.683000000001,91.529,351.0440000000001,348.05300000000005,0.0
53819.0,STARLINK-4738,PAYLOAD,2022-10-27 08:00:01,15.73322798,0.0001379,53.2165,69.3106,0.9316,217.6113,-0.0043466,-0.00573799,0.0,0 STARLINK-4738,1 53819U 22114B   22300.33334491 -.00573799  00000-0 -43466-2 0  9990,2 53819  53.2165  69.3106 0001379   0.9316 217.6113 15.73322798  6604,6727.545,91.526,350.338,348.482,0.0
53819.0,STARLINK-4738,PAYLOAD,2022-10-27 14:00:01,15.7307336,0.0001848,53.2173,68.0753,32.052,163.24200000000005,-0.0066343,-0.00839344,0.0,0 STARLINK-4738,1 53819U 22114B   22300.58335648 -.00839344  00000-0 -66343-2 0  9992,2 53819  53.2173  68.0753 0001848  32.0520 163.2420 15.73073360  1308,6728.255999999999,91.541,351.365,348.87800000000016,0.0
53819.0,STARLINK-4738,PAYLOAD,2022-10-27 22:00:00,15.72506167,0.0005024,53.2167,66.4275,276.0793,7.5514,-0.0097443,-0.01180948,0.0,0 STARLINK-4738,1 53819U 22114B   22300.91667824 -.01180948  00000-0 -97443-2 0  9998,2 53819  53.2167  66.4275 0005024 276.0793   7.5514 15.72506167  1303,6729.874,91.574,355.12,348.358,0.0
53819.0,STARLINK-4738,PAYLOAD,2022-10-28 00:00:02,15.72258532,0.0005807,53.217,66.015,274.5917,121.1028,-0.0092532,-0.01117604,0.0,0 STARLINK-4738,1 53819U 22114B   22301.00002315 -.01117604  00000-0 -92532-2 0  9990,2 53819  53.2170  66.0150 0005807 274.5917 121.1028 15.72258532  6707,6730.581,91.588,356.35400000000016,348.537,0.0
53819.0,STARLINK-4738,PAYLOAD,2022-10-28 14:00:01,15.70861161,0.0001864,53.2171,63.1356,292.0644,165.7585,-0.010222,-0.01155843,0.0,0 STARLINK-4738,1 53819U 22114B   22301.58335648 -.01155843  00000-0 -10222-1 0  9993,2 53819  53.2171  63.1356 0001864 292.0644 165.7585 15.70861161  1304,6734.571999999999,91.669,357.69199999999995,355.181,0.0
53819.0,STARLINK-4738,PAYLOAD,2022-10-28 22:00:01,15.7003815,0.0001281,53.2169,61.4932,19.725,163.6935,-0.01043,-0.01140677,0.0,0 STARLINK-4738,1 53819U 22114B   22301.91668981 -.01140677  00000-0 -10430-1 0  9999,2 53819  53.2169  61.4932 0001281  19.7250 163.6935 15.70038150  6857,6736.925,91.718,359.653,357.927,0.0
53819.0,STARLINK-4738,PAYLOAD,2022-10-29 12:00:00,15.68679763,0.0001256,53.2174,58.6223,61.8389,178.9128,-0.011901,-0.01241111,0.0,0 STARLINK-4738,1 53819U 22114B   22302.50001157 -.01241111  00000-0 -11901-1 0  9990,2 53819  53.2174  58.6223 0001256  61.8389 178.9128 15.68679763  1303,6740.814,91.797,363.525,361.832,0.0
53819.0,STARLINK-4738,PAYLOAD,2022-10-29 22:00:01,15.6758985,0.0001409,53.2167,56.5764,41.7628,32.5674,-0.011398,-0.01146191,0.0,0 STARLINK-4738,1 53819U 22114B   22302.91668981 -.01146191  00000-0 -11398-1 0  9991,2 53819  53.2167  56.5764 0001409  41.7628  32.5674 15.67589850  1302,6743.938,91.861,366.753,364.852,0.0
53819.0,STARLINK-4738,PAYLOAD,2022-10-30 00:00:00,15.67381145,0.0001422,53.2173,56.167,52.3612,132.41899999999998,-0.011428,-0.01140042,0.0,0 STARLINK-4738,1 53819U 22114B   22303.00001157 -.01140042  00000-0 -11428-1 0  9991,2 53819  53.2173  56.1670 0001422  52.3612 132.4190 15.67381145  7022,6744.536,91.873,367.36,365.442,0.0
53819.0,STARLINK-4738,PAYLOAD,2022-10-30 14:00:01,15.65954701,0.000129,53.2172,53.309,66.3017,170.3507,-0.012062,-0.01135737,0.0,0 STARLINK-4738,1 53819U 22114B   22303.58334491 -.01135737  00000-0 -12062-1 0  9994,2 53819  53.2172  53.3090 0001290  66.3017 170.3507 15.65954701  1303,6748.630999999999,91.957,371.367,369.626,0.0
53819.0,STARLINK-4738,PAYLOAD,2022-10-30 22:00:01,15.65087982,0.0001238,53.2167,51.6778,44.1819,272.2856,-0.0116,-0.0104565,0.0,0 STARLINK-4738,1 53819U 22114B   22303.91668981 -.01045650  00000-0 -11600-1 0  9996,2 53819  53.2167  51.6778 0001238  44.1819 272.2856 15.65087982  1304,6751.123000000001,92.008,373.824,372.152,0.0
53819.0,STARLINK-4738,PAYLOAD,2022-10-31 14:00:01,15.63520738,0.0001368,53.2173,48.4222,60.9085,51.9819,-0.013406,-0.01144125,0.0,0 STARLINK-4738,1 53819U 22114B   22304.58334491 -.01144125  00000-0 -13406-1 0  9999,2 53819  53.2173  48.4222 0001368  60.9085  51.9819 15.63520738  1304,6755.6330000000025,92.1,378.423,376.574,0.0
53819.0,STARLINK-4738,PAYLOAD,2022-10-31 22:00:01,15.62713127,0.0001348,53.217,46.7968,50.651,139.0943,-0.013969,-0.01153691,0.0,0 STARLINK-4738,1 53819U 22114B   22304.91668981 -.01153691  00000-0 -13969-1 0  9992,2 53819  53.2170  46.7968 0001348  50.6510 139.0943 15.62713127  1307,6757.9609999999975,92.147,380.737,378.915,0.0
53819.0,STARLINK-4738,PAYLOAD,2022-11-01 14:00:01,15.61086727,0.0001284999999999,53.2174,43.5534,54.3996,285.9290000000001,-0.014899,-0.01154492,0.0,0 STARLINK-4738,1 53819U 22114B   22305.58334491 -.01154492  00000-0 -14899-1 0  9995,2 53819  53.2174  43.5534 0001285  54.3996 285.9290 15.61086727  1308,6762.654,92.243,385.388,383.65,0.0
53819.0,STARLINK-4738,PAYLOAD,2022-11-01 22:00:00,15.60279344,0.0001323,53.2167,41.9337,41.3674,12.8162,-0.015478,-0.01161655,0.0,0 STARLINK-4738,1 53819U 22114B   22305.91667824 -.01161655  00000-0 -15478-1 0  9994,2 53819  53.2167  41.9337 0001323  41.3674  12.8162 15.60279344  7483,6764.986999999999,92.291,387.747,385.957,0.0
53819.0,STARLINK-4738,PAYLOAD,2022-11-02 14:00:01,15.58631064,0.0001508,53.2173,38.7023,52.6448,146.3303,-0.01603,-0.01132465,0.0,0 STARLINK-4738,1 53819U 22114B   22306.58334491 -.01132465  00000-0 -16030-1 0  9991,2 53819  53.2173  38.7023 0001508  52.6448 146.3303 15.58631064  1308,6769.755,92.389,392.641,390.599,0.0
53819.0,STARLINK-4738,PAYLOAD,2022-11-02 22:00:00,15.57819317,0.0001243,53.2173,37.0882,61.0916,208.8079,-0.016588,-0.01135842,0.0,0 STARLINK-4738,1 53819U 22114B   22306.91667824 -.01135842  00000-0 -16588-1 0  9997,2 53819  53.2173  37.0882 0001243  61.0916 208.8079 15.57819317  1305,6772.107,92.437,394.81300000000016,393.13,0.0
53819.0,STARLINK-4738,PAYLOAD,2022-11-03 08:00:01,15.56799918,0.0001704,53.2175,35.0739,35.4834,51.6976,-0.0171669999999999,-0.01131746,0.0,0 STARLINK-4738,1 53819U 22114B   22307.33334491 -.01131746  00000-0 -17167-1 0  9998,2 53819  53.2175  35.0739 0001704  35.4834  51.6976 15.56799918  7705,6775.063,92.497,398.082,395.773,0.0
53819.0,STARLINK-4738,PAYLOAD,2022-11-03 14:00:01,15.56193768,0.0001358,53.2174,33.8686,50.8612,357.9519,-0.017661,-0.0113743,0.0,0 STARLINK-4738,1 53819U 22114B   22307.58334491 -.01137430  00000-0 -17661-1 0  9990,2 53819  53.2174  33.8686 0001358  50.8612 357.9519 15.56193768  1307,6776.821999999999,92.533,399.607,397.766,0.0
53819.0,STARLINK-4738,PAYLOAD,2022-11-03 22:00:00,15.55376633,0.0001334,53.2174,32.2603,55.3766,61.4297,-0.018118,-0.01132383,0.0,0 STARLINK-4738,1 53819U 22114B   22307.91667824 -.01132383  00000-0 -18118-1 0  9996,2 53819  53.2174  32.2603 0001334  55.3766  61.4297 15.55376633  1306,6779.195,92.582,401.964,400.156,0.0
53819.0,STARLINK-4738,PAYLOAD,2022-11-04 06:00:00,15.54561884,0.0001381,53.2177,30.6544,64.819,119.0005,-0.018618,-0.01129377,0.0,0 STARLINK-4738,1 53819U 22114B   22308.25001157 -.01129377  00000-0 -18618-1 0  9999,2 53819  53.2177  30.6544 0001381  64.8190 119.0005 15.54561884  7848,6781.563,92.631,404.365,402.492,0.0
53819.0,STARLINK-4738,PAYLOAD,2022-11-04 14:00:01,15.53748337,0.0001353,53.2176,29.053,63.3352,186.5186,-0.019202,-0.01130329,0.0,0 STARLINK-4738,1 53819U 22114B   22308.58334491 -.01130329  00000-0 -19202-1 0  9994,2 53819  53.2176  29.0530 0001353  63.3352 186.5186 15.53748337  1300,6783.931,92.679,406.713,404.878,0.0
53819.0,STARLINK-4738,PAYLOAD,2022-11-04 22:00:01,15.52952329,0.0001624,53.2169,27.4502,36.4609,278.5076,-0.020255,-0.01155452,0.0,0 STARLINK-4738,1 53819U 22114B   22308.91668981 -.01155452  00000-0 -20255-1 0  9999,2 53819  53.2169  27.4502 0001624  36.4609 278.5076 15.52952329  1307,6786.248000000001,92.727,409.216,407.011,0.0
53819.0,STARLINK-4738,PAYLOAD,2022-11-05 14:00:01,15.51314777,0.0001706,53.2173,24.2546,39.4996,42.6545,-0.021248,-0.01143545,0.0,0 STARLINK-4738,1 53819U 22114B   22309.58335648 -.01143545  00000-0 -21248-1 0  9997,2 53819  53.2173  24.2546 0001706  39.4996  42.6545 15.51314777  1307,6791.023,92.824,414.047,411.73,0.0
53819.0,STARLINK-4738,PAYLOAD,2022-11-05 22:00:01,15.50391977,0.0001839,53.2171,22.6578,37.9531,106.3286,-0.011366,-0.00608679,0.0,0 STARLINK-4738,1 53819U 22114B   22309.91668981 -.00608679  00000-0 -11366-1 0  9996,2 53819  53.2171  22.6578 0001839  37.9531 106.3286 15.50391977  8108,6793.718000000003,92.88,416.832,414.333,0.0
